STARLINK-2750_new
1 18691C 21044BF  21326.17987944  .00006787  00000-0  45467-3 0  3263
2 18691  53.0531 277.8479 0001932  60.3469  27.8756 15.06397798    15
STARLINK-2750_old
1 28691C 21044BF  21325.18418456  .00006927  00000-0  46417-3 0  3251
2 28691  53.0531 282.3176 0001893  58.9922  26.5688 15.06385277    12
